{"type": "FeatureCollection", "features": [ {"type": "Feature", "properties": {"norad_id": 33905, "name": "COSMOS 2251 DEB", "group": "cosmos-2251-debris", "lat": -9.07047259494825, "lon": 123.41593948381235, "alt_km": 735.6983408021151, "timestamp": "2025-12-21T07:34:34.907640+00:00", "meta": {"OBJECT_NAME": "COSMOS 2251 DEB", "OBJECT_ID": "1993-036DJ", "EPOCH": "2025-12-20T20:59:38.107968", "MEAN_MOTION": 14.354111, "ECCENTRICITY": 0.00583106, "INCLINATION": 73.8865, "RA_OF_ASC_NODE": 301.5866, "ARG_OF_PERICENTER": 189.3419, "MEAN_ANOMALY": 242.3584, "EPHEMERIS_TYPE": 0, "CLASSIFICATION_TYPE": "U", "NORAD_CAT_ID": 33905, "ELEMENT_SET_NO": 999, "REV_AT_EPOCH": 87804, "BSTAR": 0.00039364524, "MEAN_MOTION_DOT": 1.125e-05, "MEAN_MOTION_DDOT": 0}, "tle": {"line1": "1 33905U 93036DJ  25354.87474662  .00001125  00000+0  39365-3 0  9991", "line2": "2 33905  73.8865 301.5866 0058310 189.3419 242.3584 14.35411100878045"}}, "geometry": {"type": "Point", "coordinates": [123.41593948381235, -9.07047259494825]}}, {"type": "Feature", "properties": {"norad_id": 33906, "name": "COSMOS 2251 DEB", "group": "cosmos-2251-debris", "lat": 24.384039271285513, "lon": -47.36566924562499, "alt_km": 685.0311271073733, "timestamp": "2025-12-21T07:34:34.907660+00:00", "meta": {"OBJECT_NAME": "COSMOS 2251 DEB", "OBJECT_ID": "1993-036DK", "EPOCH": "2025-12-20T20:02:37.819680", "MEAN_MOTION": 14.57214229, "ECCENTRICITY": 0.00369077, "INCLINATION": 74.0303, "RA_OF_ASC_NODE": 306.0889, "ARG_OF_PERICENTER": 334.5785, "MEAN_ANOMALY": 50.8469, "EPHEMERIS_TYPE": 0, "CLASSIFICATION_TYPE": "U", "NORAD_CAT_ID": 33906, "ELEMENT_SET_NO": 999, "REV_AT_EPOCH": 88126, "BSTAR": 0.0011944679, "MEAN_MOTION_DOT": 5.42e-05, "MEAN_MOTION_DDOT": 0}, "tle": {"line1": "1 33906U 93036DK  25354.83515995  .00005420  00000+0  11945-2 0  9998", "line2": "2 33906  74.0303 306.0889 0036907 334.5785  50.8469 14.57214229881268"}}, "geometry": {"type": "Point", "coordinates": [-47.36566924562499, 24.384039271285513]}}, {"type": "Feature", "properties": {"norad_id": 33907, "name": "COSMOS 2251 DEB", "group": "cosmos-2251-debris", "lat": -69.29533925000057, "lon": -112.8392329627795, "alt_km": 876.5615714730766, "timestamp": "2025-12-21T07:34:34.907670+00:00", "meta": {"OBJECT_NAME": "COSMOS 2251 DEB", "OBJECT_ID": "1993-036DL", "EPOCH": "2025-12-20T08:39:03.581568", "MEAN_MOTION": 14.30568878, "ECCENTRICITY": 0.01118938, "INCLINATION": 74.0693, "RA_OF_ASC_NODE": 19.8097, "ARG_OF_PERICENTER": 73.0053, "MEAN_ANOMALY": 306.2172, "EPHEMERIS_TYPE": 0, "CLASSIFICATION_TYPE": "U", "NORAD_CAT_ID": 33907, "ELEMENT_SET_NO": 999, "REV_AT_EPOCH": 86689, "BSTAR": 0.0011890274, "MEAN_MOTION_DOT": 3.297e-05, "MEAN_MOTION_DDOT": 0}, "tle": {"line1": "1 33907U 93036DL  25354.36045812  .00003297  00000+0  11890-2 0  9992", "line2": "2 33907  74.0693  19.8097 0111893  73.0053 306.2172 14.30568878866896"}}, "geometry": {"type": "Point", "coordinates": [-112.8392329627795, -69.29533925000057]}}, {"type": "Feature", "properties": {"norad_id": 33908, "name": "COSMOS 2251 DEB", "group": "cosmos-2251-debris", "lat": -60.87062828943639, "lon": 159.18588176781594, "alt_km": 849.4893424665934, "timestamp": "2025-12-21T07:34:34.907679+00:00", "meta": {"OBJECT_NAME": "COSMOS 2251 DEB", "OBJECT_ID": "1993-036DM", "EPOCH": "2025-12-20T19:57:01.536192", "MEAN_MOTION": 14.07396598, "ECCENTRICITY": 0.02225081, "INCLINATION": 73.8363, "RA_OF_ASC_NODE": 191.407, "ARG_OF_PERICENTER": 213.4269, "MEAN_ANOMALY": 145.2659, "EPHEMERIS_TYPE": 0, "CLASSIFICATION_TYPE": "U", "NORAD_CAT_ID": 33908, "ELEMENT_SET_NO": 999, "REV_AT_EPOCH": 85587, "BSTAR": 0.0013495239, "MEAN_MOTION_DOT": 2.819e-05, "MEAN_MOTION_DDOT": 0}, "tle": {"line1": "1 33908U 93036DM  25354.83126778  .00002819  00000+0  13495-2 0  9998", "line2": "2 33908  73.8363 191.4070 0222508 213.4269 145.2659 14.07396598855870"}}, "geometry": {"type": "Point", "coordinates": [159.18588176781594, -60.87062828943639]}}, {"type": "Feature", "properties": {"norad_id": 33911, "name": "COSMOS 2251 DEB", "group": "cosmos-2251-debris", "lat": -14.286639797118491, "lon": 140.98671349851426, "alt_km": 650.1368204764176, "timestamp": "2025-12-21T07:34:34.907689+00:00", "meta": {"OBJECT_NAME": "COSMOS 2251 DEB", "OBJECT_ID": "1993-036DQ", "EPOCH": "2025-12-20T05:51:39.580704", "MEAN_MOTION": 14.75026085, "ECCENTRICITY": 0.00140548, "INCLINATION": 74.0899, "RA_OF_ASC_NODE": 147.2383, "ARG_OF_PERICENTER": 82.4401, "MEAN_ANOMALY": 335.6844, "EPHEMERIS_TYPE": 0, "CLASSIFICATION_TYPE": "U", "NORAD_CAT_ID": 33911, "ELEMENT_SET_NO": 999, "REV_AT_EPOCH": 88755, "BSTAR": 0.0013640753, "MEAN_MOTION_DOT": 9.177e-05, "MEAN_MOTION_DDOT": 0}, "tle": {"line1": "1 33911U 93036DQ  25354.24420811  .00009177  00000+0  13641-2 0  9999", "line2": "2 33911  74.0899 147.2383 0014054  82.4401 335.6844 14.75026085887551"}}, "geometry": {"type": "Point", "coordinates": [140.98671349851426, -14.286639797118491]}}, {"type": "Feature", "properties": {"norad_id": 33912, "name": "COSMOS 2251 DEB", "group": "cosmos-2251-debris", "lat": -57.807465421632045, "lon": 20.621698463548995, "alt_km": 718.1655017330613, "timestamp": "2025-12-21T07:34:34.907699+00:00", "meta": {"OBJECT_NAME": "COSMOS 2251 DEB", "OBJECT_ID": "1993-036DR", "EPOCH": "2025-12-20T22:55:10.785216", "MEAN_MOTION": 14.51936444, "ECCENTRICITY": 0.00113379, "INCLINATION": 74.0325, "RA_OF_ASC_NODE": 174.249, "ARG_OF_PERICENTER": 253.1694, "MEAN_ANOMALY": 263.8909, "EPHEMERIS_TYPE": 0, "CLASSIFICATION_TYPE": "U", "NORAD_CAT_ID": 33912, "ELEMENT_SET_NO": 999, "REV_AT_EPOCH": 88552, "BSTAR": 0.000509908, "MEAN_MOTION_DOT": 2.031e-05, "MEAN_MOTION_DDOT": 0}, "tle": {"line1": "1 33912U 93036DR  25354.95498594  .00002031  00000+0  50991-3 0  9993", "line2": "2 33912  74.0325 174.2490 0011337 253.1694 263.8909 14.51936444885529"}}, "geometry": {"type": "Point", "coordinates": [20.621698463548995, -57.807465421632045]}}, {"type": "Feature", "properties": {"norad_id": 33913, "name": "COSMOS 2251 DEB", "group": "cosmos-2251-debris", "lat": -39.73160310662075, "lon": 1.344567426867758, "alt_km": 713.1622051363347, "timestamp": "2025-12-21T07:34:34.907708+00:00", "meta": {"OBJECT_NAME": "COSMOS 2251 DEB", "OBJECT_ID": "1993-036DS", "EPOCH": "2025-12-20T14:16:18.139296", "MEAN_MOTION": 14.48514433, "ECCENTRICITY": 0.0048159, "INCLINATION": 74.032, "RA_OF_ASC_NODE": 168.9277, "ARG_OF_PERICENTER": 270.0114, "MEAN_ANOMALY": 153.5906, "EPHEMERIS_TYPE": 0, "CLASSIFICATION_TYPE": "U", "NORAD_CAT_ID": 33913, "ELEMENT_SET_NO": 999, "REV_AT_EPOCH": 88571, "BSTAR": 0.00037336, "MEAN_MOTION_DOT": 1.394e-05, "MEAN_MOTION_DDOT": 0}, "tle": {"line1": "1 33913U 93036DS  25354.59465439  .00001394  00000+0  37336-3 0  9995", "line2": "2 33913  74.0320 168.9277 0048159 270.0114 153.5906 14.48514433885714"}}, "geometry": {"type": "Point", "coordinates": [1.344567426867758, -39.73160310662075]}}, {"type": "Feature", "properties": {"norad_id": 33914, "name": "COSMOS 2251 DEB", "group": "cosmos-2251-debris", "lat": -14.51182867007423, "lon": -3.2717382239203148, "alt_km": 1091.6957406866504, "timestamp": "2025-12-21T07:34:34.907718+00:00", "meta": {"OBJECT_NAME": "COSMOS 2251 DEB", "OBJECT_ID": "1993-036DT", "EPOCH": "2025-12-20T18:27:36.984384", "MEAN_MOTION": 13.7198905, "ECCENTRICITY": 0.03008356, "INCLINATION": 74.0911, "RA_OF_ASC_NODE": 1.862, "ARG_OF_PERICENTER": 102.9535, "MEAN_ANOMALY": 66.9153, "EPHEMERIS_TYPE": 0, "CLASSIFICATION_TYPE": "U", "NORAD_CAT_ID": 33914, "ELEMENT_SET_NO": 999, "REV_AT_EPOCH": 84191, "BSTAR": 0.00017031049, "MEAN_MOTION_DOT": 1.94e-06, "MEAN_MOTION_DDOT": 0}, "tle": {"line1": "1 33914U 93036DT  25354.76917806  .00000194  00000+0  17031-3 0  9992", "line2": "2 33914  74.0911   1.8620 0300835 102.9535  66.9153 13.71989050841911"}}, "geometry": {"type": "Point", "coordinates": [-3.2717382239203148, -14.51182867007423]}}, {"type": "Feature", "properties": {"norad_id": 33915, "name": "COSMOS 2251 DEB", "group": "cosmos-2251-debris", "lat": -69.42888127449154, "lon": -111.93717345826836, "alt_km": 844.7275593046033, "timestamp": "2025-12-21T07:34:34.907728+00:00", "meta": {"OBJECT_NAME": "COSMOS 2251 DEB", "OBJECT_ID": "1993-036DU", "EPOCH": "2025-12-20T19:29:43.120032", "MEAN_MOTION": 14.35099184, "ECCENTRICITY": 0.01041038, "INCLINATION": 74.0433, "RA_OF_ASC_NODE": 19.3126, "ARG_OF_PERICENTER": 109.6871, "MEAN_ANOMALY": 66.9266, "EPHEMERIS_TYPE": 0, "CLASSIFICATION_TYPE": "U", "NORAD_CAT_ID": 33915, "ELEMENT_SET_NO": 999, "REV_AT_EPOCH": 87873, "BSTAR": 0.00023146425, "MEAN_MOTION_DOT": 6.76e-06, "MEAN_MOTION_DDOT": 0}, "tle": {"line1": "1 33915U 93036DU  25354.81230463  .00000676  00000+0  23146-3 0  9995", "line2": "2 33915  74.0433  19.3126 0104103 109.6871  66.9266 14.35099184878739"}}, "geometry": {"type": "Point", "coordinates": [-111.93717345826836, -69.42888127449154]}}, {"type": "Feature", "properties": {"norad_id": 33916, "name": "COSMOS 2251 DEB", "group": "cosmos-2251-debris", "lat": 31.200181471735338, "lon": -163.47421266905582, "alt_km": 842.1128852875727, "timestamp": "2025-12-21T07:34:34.907737+00:00", "meta": {"OBJECT_NAME": "COSMOS 2251 DEB", "OBJECT_ID": "1993-036DV", "EPOCH": "2025-12-20T12:08:42.300096", "MEAN_MOTION": 13.6862179, "ECCENTRICITY": 0.03249982, "INCLINATION": 74.0522, "RA_OF_ASC_NODE": 27.8276, "ARG_OF_PERICENTER": 198.3165, "MEAN_ANOMALY": 284.1775, "EPHEMERIS_TYPE": 0, "CLASSIFICATION_TYPE": "U", "NORAD_CAT_ID": 33916, "ELEMENT_SET_NO": 999, "REV_AT_EPOCH": 83997, "BSTAR": 0.00025936794, "MEAN_MOTION_DOT": 3e-06, "MEAN_MOTION_DDOT": 0}, "tle": {"line1": "1 33916U 93036DV  25354.50604514  .00000300  00000+0  25937-3 0  9998", "line2": "2 33916  74.0522  27.8276 0324998 198.3165 284.1775 13.68621790839977"}}, "geometry": {"type": "Point", "coordinates": [-163.47421266905582, 31.200181471735338]}}]}